{
  "norad_id": 53680,
  "name": "STARLINK-4630",
  "history": [
    {
      "epoch": "2026-03-28T15:02:26.778912Z",
      "apogee_km": 551.0601730083235,
      "perigee_km": 547.9482765701487,
      "latitude_deg": 8.446822366095702e-06,
      "longitude_deg": -81.77741829476956,
      "height_km": 552.5132474136345,
      "semi_major_axis_km": 6927.641224789236,
      "eccentricity": 0.0002246,
      "inclination_deg": 97.6037,
      "raan_deg": 329.8786,
      "arg_perigee_deg": 88.0692,
      "mean_anomaly_deg": 272.0792,
      "mean_motion_rev_day": 15.05652259
    },
    {
      "epoch": "2026-03-29T03:48:02.793024Z",
      "apogee_km": 551.0461171729148,
      "perigee_km": 547.9799392704244,
      "latitude_deg": -1.5788189529141498e-05,
      "longitude_deg": 86.82239131748807,
      "height_km": 552.5270794259476,
      "semi_major_axis_km": 6927.650028221669,
      "eccentricity": 0.0002213,
      "inclination_deg": 97.6037,
      "raan_deg": 330.4025,
      "arg_perigee_deg": 88.2262,
      "mean_anomaly_deg": 271.9218,
      "mean_motion_rev_day": 15.05649389
    }
  ]
}